     2              NAVIGATION DATA                         RINEX VERSION / TYPE
CCRINEXN V1.6.0 UX  CDDIS               10-APR-19 09:29     PGM / RUN BY / DATE 
IGS BROADCAST EPHEMERIS FILE                                COMMENT             
    0.1118D-07  0.7451D-08 -0.5960D-07 -0.5960D-07          ION ALPHA           
    0.9011D+05  0.1638D+05 -0.1966D+06 -0.6554D+05          ION BETA            
    0.279396772385D-08-0.266453525910D-14   233472     2047 DELTA-UTC: A0,A1,T,W
    18                                                      LEAP SECONDS        
                                                            END OF HEADER       
28 19  3 31 21 59 44.0 0.767022371292D-03 0.341060513165D-12 0.000000000000D+00
    0.190000000000D+02 0.878125000000D+01 0.390087695479D-08-0.307097240454D+01
    0.439584255218D-06 0.191262682201D-01 0.967457890511D-05 0.515370371819D+04
    0.791840000000D+05 0.348314642906D-06 0.229741795716D+01 0.121071934700D-06
    0.982679603544D+00 0.199500000000D+03-0.146965576792D+01-0.738173611126D-08
   -0.257510734958D-09 0.100000000000D+01 0.204700000000D+04 0.000000000000D+00
    0.200000000000D+01 0.000000000000D+00-0.111758708954D-07 0.190000000000D+02
    0.778500000000D+05 0.000000000000D+00 0.000000000000D+00 0.000000000000D+00
29 19  3 31 21 59 44.0 0.236287713051D-03-0.898126018001D-11 0.000000000000D+00
    0.650000000000D+02 0.720000000000D+02 0.404945439032D-08 0.309934523987D+01
    0.386498868465D-05 0.880650477484D-03 0.759400427341D-05 0.515377919960D+04
    0.791840000000D+05 0.931322574615D-07-0.296465947936D+01-0.484287738800D-07
    0.985703231388D+00 0.245000000000D+03 0.157480293904D+01-0.791425823205D-08
    0.266439669710D-09 0.100000000000D+01 0.204700000000D+04 0.000000000000D+00
    0.200000000000D+01 0.000000000000D+00-0.102445483208D-07 0.650000000000D+02
    0.720180000000D+05 0.400000000000D+01 0.000000000000D+00 0.000000000000D+00
31 19  3 31 21 59 44.0 0.482387840748D-04-0.261479726760D-11 0.000000000000D+00
    0.200000000000D+01 0.487500000000D+01 0.489413243169D-08-0.789073205255D+00
    0.210478901863D-06 0.922537443694D-02 0.440329313278D-05 0.515358038521D+04
    0.791840000000D+05 0.111758708954D-06 0.118893436960D+01-0.134110450745D-06
    0.960259542802D+00 0.287718750000D+03-0.177498922686D-02-0.835677666472D-08
    0.585738684082D-10 0.100000000000D+01 0.204700000000D+04 0.000000000000D+00
    0.200000000000D+01 0.000000000000D+00-0.135041773319D-07 0.200000000000D+01
    0.769560000000D+05 0.400000000000D+01 0.000000000000D+00 0.000000000000D+00
 1 19  3 31 22  0  0.0-0.192179810256D-03-0.784439180279D-11 0.000000000000D+00
    0.610000000000D+02-0.204687500000D+02 0.453626025632D-08 0.219735709766D+00
   -0.977888703346D-06 0.857067608740D-02 0.303983688354D-05 0.515365529060D+04
    0.792000000000D+05 0.745058059692D-08-0.197612622125D+01 0.819563865662D-07
    0.974635362275D+00 0.323781250000D+03 0.686276555819D+00-0.838892066923D-08
   -0.153934989755D-09 0.100000000000D+01 0.204700000000D+04 0.000000000000D+00
    0.200000000000D+01 0.000000000000D+00 0.558793544769D-08 0.610000000000D+02
    0.720300000000D+05 0.000000000000D+00 0.000000000000D+00 0.000000000000D+00
 2 19  3 31 22  0  0.0-0.177659559995D-03-0.954969436862D-11 0.000000000000D+00
    0.470000000000D+02-0.181875000000D+02 0.509164065870D-08 0.511025172695D+00
   -0.908970832825D-06 0.189236475853D-01 0.349804759026D-05 0.515367504883D+04
    0.792000000000D+05-0.284984707832D-06-0.204370855266D+01-0.260770320892D-07
    0.953773250770D+00 0.314281250000D+03-0.175442120577D+01-0.886072622767D-08
   -0.206794328100D-09 0.100000000000D+01 0.204700000000D+04 0.000000000000D+00
    0.200000000000D+01 0.000000000000D+00-0.204890966415D-07 0.470000000000D+02
    0.768180000000D+05 0.400000000000D+01 0.000000000000D+00 0.000000000000D+00
 3 19  3 31 22  0  0.0 0.187645200640D-03 0.682121026330D-12 0.000000000000D+00
    0.180000000000D+02-0.757812500000D+02 0.432875157941D-08-0.708058945200D+00
   -0.407360494137D-05 0.194134027697D-02 0.919774174690D-05 0.515355592918D+04
    0.792000000000D+05 0.614672899246D-07-0.933245495044D+00 0.484287738800D-07
    0.962583183362D+00 0.203718750000D+03 0.578571568994D+00-0.797390331542D-08
   -0.256439258717D-09 0.100000000000D+01 0.204700000000D+04 0.000000000000D+00
    0.200000000000D+01 0.000000000000D+00 0.232830643654D-08 0.180000000000D+02
    0.720300000000D+05 0.000000000000D+00 0.000000000000D+00 0.000000000000D+00
 4 19  3 31 22  0  0.0 0.142272561789D-03 0.602540239925D-11 0.000000000000D+00
    0.820000000000D+02 0.381562500000D+02 0.440875507092D-08-0.415068130488D+00
    0.203587114811D-05 0.357542885467D-03 0.900775194168D-05 0.515378980827D+04
    0.792000000000D+05-0.223517417908D-07 0.143628967866D+00 0.102445483208D-06
    0.960345615050D+00 0.206031250000D+03-0.169489668419D+01-0.792890169915D-08
    0.446804325479D-09 0.100000000000D+01 0.204700000000D+04 0.000000000000D+00
    0.280000000000D+01 0.630000000000D+02-0.884756445885D-08 0.820000000000D+02
    0.731580000000D+05 0.400000000000D+01 0.000000000000D+00 0.000000000000D+00
 5 19  3 31 22  0  0.0 0.117067247629D-05 0.000000000000D+00 0.000000000000D+00
    0.690000000000D+02-0.887500000000D+02 0.457340478638D-08-0.310951337341D+01
   -0.456720590591D-05 0.555716338567D-02 0.954605638981D-05 0.515366141701D+04
    0.792000000000D+05 0.298023223877D-07-0.959304526473D+00-0.204890966415D-07
    0.949441692240D+00 0.189406250000D+03 0.705866458171D+00-0.799569019545D-08
   -0.162149611325D-09 0.100000000000D+01 0.204700000000D+04 0.000000000000D+00
    0.200000000000D+01 0.000000000000D+00-0.111758708954D-07 0.690000000000D+02
    0.720290000000D+05 0.400000000000D+01 0.000000000000D+00 0.000000000000D+00
 6 19  3 31 22  0  0.0 0.241907779127D-03-0.909494701773D-11 0.000000000000D+00
    0.770000000000D+02-0.302187500000D+02 0.446768622098D-08 0.417188843830D+00
   -0.158697366715D-05 0.161558028776D-02 0.342726707458D-05 0.515355166054D+04
    0.792000000000D+05-0.465661287308D-07-0.198441205320D+01-0.745058059692D-08
    0.974299536264D+00 0.322468750000D+03-0.114091774241D+01-0.826427282163D-08
   -0.137862887772D-09 0.100000000000D+01 0.204700000000D+04 0.000000000000D+00
    0.200000000000D+01 0.000000000000D+00 0.465661287308D-08 0.770000000000D+02
    0.789600000000D+05 0.000000000000D+00 0.000000000000D+00 0.000000000000D+00
 7 19  3 31 22  0  0.0 0.406894832850D-05-0.738964445190D-11 0.000000000000D+00
    0.680000000000D+02 0.534375000000D+01 0.504592456707D-08-0.384916499420D+00
    0.467523932457D-06 0.123881900217D-01 0.484287738800D-05 0.515359239960D+04
    0.792000000000D+05 0.335276126862D-07 0.117510494272D+01 0.195577740669D-06
    0.955706153226D+00 0.283906250000D+03-0.247232583395D+01-0.851999804041D-08
   -0.292869339891D-10 0.100000000000D+01 0.204700000000D+04 0.000000000000D+00
    0.200000000000D+01 0.000000000000D+00-0.111758708954D-07 0.680000000000D+02
    0.720300000000D+05 0.000000000000D+00 0.000000000000D+00 0.000000000000D+00
 8 19  3 31 22  0  0.0-0.138222705573D-03-0.136424205266D-11 0.000000000000D+00
    0.114000000000D+03 0.671250000000D+02 0.431017932456D-08 0.263837557354D+01
    0.358745455742D-05 0.438956869766D-02 0.800192356110D-05 0.515372217751D+04
    0.792000000000D+05-0.126659870148D-06-0.304240253024D+01 0.122934579849D-06
    0.970511295268D+00 0.231531250000D+03-0.284116237233D+00-0.793104426577D-08
    0.232866836925D-09 0.100000000000D+01 0.204700000000D+04 0.000000000000D+00
    0.200000000000D+01 0.000000000000D+00 0.512227416039D-08 0.114000000000D+03
    0.720300000000D+05 0.000000000000D+00 0.000000000000D+00 0.000000000000D+00
 9 19  3 31 22  0  0.0 0.436362810433D-03-0.613908923697D-11 0.000000000000D+00
    0.560000000000D+02 0.380937500000D+02 0.454518911397D-08 0.270249447420D+01
    0.204145908356D-05 0.135091377888D-02 0.920146703720D-05 0.515370825005D+04
    0.792000000000D+05-0.577419996262D-07 0.988773573131D-01 0.689178705216D-07
    0.952983119938D+00 0.197968750000D+03 0.175188579465D+01-0.795461740921D-08
    0.403231087409D-09 0.100000000000D+01 0.204700000000D+04 0.000000000000D+00
    0.200000000000D+01 0.000000000000D+00 0.139698386192D-08 0.560000000000D+02
    0.720300000000D+05 0.000000000000D+00 0.000000000000D+00 0.000000000000D+00
10 19  3 31 22  0  0.0 0.841347500682D-04-0.920863385545D-11 0.000000000000D+00
    0.160000000000D+02-0.844375000000D+02 0.420410368922D-08-0.185812814574D+01
   -0.441633164883D-05 0.446280289907D-02 0.909529626370D-05 0.515366640091D+04
    0.792000000000D+05-0.651925802231D-07-0.936505311011D+00-0.949949026108D-07
    0.962614052396D+00 0.206593750000D+03-0.271040438741D+01-0.780425364992D-08
   -0.157863718515D-09 0.100000000000D+01 0.204700000000D+04 0.000000000000D+00
    0.200000000000D+01 0.000000000000D+00 0.186264514923D-08 0.160000000000D+02
    0.720180000000D+05 0.400000000000D+01 0.000000000000D+00 0.000000000000D+00
11 19  3 31 22  0  0.0-0.635034870356D-03 0.693489710102D-11 0.000000000000D+00
    0.980000000000D+02 0.350312500000D+02 0.609882544467D-08-0.489163085000D+00
    0.198744237423D-05 0.165462534642D-01 0.350549817085D-05 0.515369197464D+04
    0.792000000000D+05-0.173225998878D-06-0.242335053899D+01-0.391155481338D-07
    0.908860578788D+00 0.284562500000D+03 0.187377129115D+01-0.928860099947D-08
    0.223937896004D-09 0.100000000000D+01 0.204700000000D+04 0.000000000000D+00
    0.280000000000D+01 0.000000000000D+00-0.121071934700D-07 0.980000000000D+02
    0.720300000000D+05 0.000000000000D+00 0.000000000000D+00 0.000000000000D+00
